ONEWEB-0229             
1 48779U 21045N   25343.60294872 -.00000027  00000+0 -10498-3 0  9997
2 48779  87.8984 297.0135 0001994  80.9585 279.1771 13.15548672219486
ONEWEB-0228             
1 48780U 21045P   25344.16875950  .00000148  00000+0  35943-3 0  9997
2 48780  87.8998 296.8846 0001913  77.6050 282.5295 13.15546558219479
ONEWEB-0232             
1 48781U 21045Q   25343.83905160 -.00000069  00000+0 -21654-3 0  9996
2 48781  87.9005 296.9424 0001870  79.0330 281.1011 13.15548555219753
ONEWEB-0231             
1 48782U 21045R   25343.58869432 -.00000043  00000+0 -14874-3 0  9998
2 48782  87.8988 297.0354 0002109  76.9032 283.2333 13.15549074219418
ONEWEB-0234             
1 48783U 21045S   25344.15898238  .00000172  00000+0  42179-3 0  9999
2 48783  87.8992 296.8951 0001083  61.8298 298.2941 13.15548579219624
ONEWEB-0238             
1 48784U 21045T   25343.85500971  .00000090  00000+0  20515-3 0  9999
2 48784  87.8986 296.9493 0001511  75.3906 284.7392 13.15550242219486
ONEWEB-0240             
1 48785U 21045U   25343.57204948  .00000163  00000+0  39864-3 0  9992
2 48785  87.9003 297.0006 0001913  68.1771 291.9562 13.15550679219478
ONEWEB-0246             
1 48786U 21045V   25344.17496203  .00000197  00000+0  48829-3 0  9995
2 48786  87.9000 296.8909 0001998  81.1299 279.0058 13.15549568219425
